0 COSMOS 1565
1 15004U 84052G   13282.53701631 -.00000033  00000-0 -10097-3 0  2554
2 15004 074.0134 212.5269 0043086 050.8963 061.4626 12.55391273345869
0 COSMOS 1565
1 15004U 84052G   13287.08320672  .00000002  00000-0  11274-3 0  2575
2 15004 074.0131 206.4183 0043223 043.9422 087.6148 12.55390653346433
0 COSMOS 1565
1 15004U 84052G   13289.14908387  .00000018  00000-0  20621-3 0  2583
2 15004 074.0135 203.6434 0043194 040.7935 064.1708 12.55390714346694
0 COSMOS 1565
1 15004U 84052G   13291.46215402  .00000019  00000-0  21152-3 0  2592
2 15004 074.0131 200.5359 0043236 037.2693 077.8923 12.55390917346988
0 COSMOS 1565
1 15004U 84052G   13293.84143745 -.00000011  00000-0  28277-4 0  2607
2 15004 074.0128 197.3393 0043292 033.6473 030.8571 12.55391343347289
0 COSMOS 1565
1 15004U 84052G   13296.17505764 -.00000025  00000-0 -56589-4 0  2613
2 15004 074.0127 194.2039 0043344 030.0986 137.4500 12.55391489347578
